ISS OBJECT YC           
1 67686U 98067YC  26041.46684676  .00048049  00000+0  84889-3 0  9997
2 67686  51.6308 206.8743 0007747  71.3076 288.8753 15.49834387   561
LEOPARD                 
1 67687U 98067YD  26041.46722866  .00038088  00000+0  67906-3 0  9995
2 67687  51.6309 206.8762 0007840  72.9248 287.2599 15.49681131   485
ISS OBJECT YE           
1 67688U 98067YE  26041.46690684  .00044235  00000+0  78362-3 0  9997
2 67688  51.6310 206.8749 0007721  71.3423 288.8403 15.49794693   488
PRC TEST SPACECRAFT 4   
1 67689U 26024A   26041.47163777  .00006278  00000+0  13100-3 0  9995
2 67689  49.9880 151.0116 0177650 162.0456 198.6886 15.31905308   518
CZ-2F R/B               
1 67690U 26024B   26040.75321049  .00009918  00000+0  19082-3 0  9994
2 67690  49.9890 154.5891 0178740 159.3290 201.5018 15.33080913   402
CZ-2F DEB               
1 67691U 26024C   26040.77736899  .00219040  10249-4  31794-3 0  9994
2 67691  49.9061 154.0414 0284737 164.9294 196.0383 15.58953928   415
CZ-2F DEB               
1 67692U 26024D   26040.51445789  .01037071  10166-4  16463-3 0  9999
2 67692  50.3761 155.8636 0347659 202.7642 155.7595 15.62132248   365
CZ-2F DEB               
1 67718U 26024E   26040.59088209  .00020885  00000+0  47190-3 0  9992
2 67718  50.3188 155.5286 0272595 169.4093 191.2765 15.12539689   369
CZ-2F DEB               
1 67720U 26024G   26040.55806814  .00189924  00000+0  51552-2 0  9997
2 67720  49.8307 156.3970 0356521 155.6766 206.1473 14.91513523   348
